CCSDS_OMM_VERS = 2.0
CREATION_DATE  = 
ORIGINATOR     = 

OBJECT_NAME    = STARLINK-35608
OBJECT_ID      = 2025-263Z
CENTER_NAME    = EARTH
REF_FRAME      = TEME
TIME_SYSTEM    = UTC
MEAN_ELEMENT_THEORY = SGP/SGP4

EPOCH          = 2025-12-01T06:00:02.000160
MEAN_MOTION    = 15.75048804
ECCENTRICITY   = .00020302
INCLINATION    = 42.9989
RA_OF_ASC_NODE = 193.1683
ARG_OF_PERICENTER = 272.0343
MEAN_ANOMALY   = 268.3750

EPHEMERIS_TYPE = 0
CLASSIFICATION_TYPE = U
NORAD_CAT_ID   = 66508
ELEMENT_SET_NO = 999
REV_AT_EPOCH   = 378
BSTAR          = .102263E-5
MEAN_MOTION_DOT = -.321E-5
MEAN_MOTION_DDOT = 0

CCSDS_OMM_VERS = 2.0
CREATION_DATE  = 
ORIGINATOR     = 

OBJECT_NAME    = STARLINK-35598
OBJECT_ID      = 2025-263AA
CENTER_NAME    = EARTH
REF_FRAME      = TEME
TIME_SYSTEM    = UTC
MEAN_ELEMENT_THEORY = SGP/SGP4

EPOCH          = 2025-12-01T06:00:02.000160
MEAN_MOTION    = 15.75041890
ECCENTRICITY   = .00013803
INCLINATION    = 42.9989
RA_OF_ASC_NODE = 193.1479
ARG_OF_PERICENTER = 269.6116
MEAN_ANOMALY   = 278.4803

EPHEMERIS_TYPE = 0
CLASSIFICATION_TYPE = U
NORAD_CAT_ID   = 66509
ELEMENT_SET_NO = 999
REV_AT_EPOCH   = 378
BSTAR          = -.63438601E-4
MEAN_MOTION_DOT = -.10211E-3
MEAN_MOTION_DDOT = 0

CCSDS_OMM_VERS = 2.0
CREATION_DATE  = 
ORIGINATOR     = 

OBJECT_NAME    = STARLINK-35600
OBJECT_ID      = 2025-263AB
CENTER_NAME    = EARTH
REF_FRAME      = TEME
TIME_SYSTEM    = UTC
MEAN_ELEMENT_THEORY = SGP/SGP4

EPOCH          = 2025-12-01T06:00:02.000160
MEAN_MOTION    = 15.75047905
ECCENTRICITY   = .00022953
INCLINATION    = 42.9990
RA_OF_ASC_NODE = 193.1624
ARG_OF_PERICENTER = 272.3370
MEAN_ANOMALY   = 269.9911

EPHEMERIS_TYPE = 0
CLASSIFICATION_TYPE = U
NORAD_CAT_ID   = 66510
ELEMENT_SET_NO = 999
REV_AT_EPOCH   = 378
BSTAR          = -.22859112E-4
MEAN_MOTION_DOT = -.399E-4
MEAN_MOTION_DDOT = 0

CCSDS_OMM_VERS = 2.0
CREATION_DATE  = 
ORIGINATOR     = 

OBJECT_NAME    = STARLINK-35444
OBJECT_ID      = 2025-263AC
CENTER_NAME    = EARTH
REF_FRAME      = TEME
TIME_SYSTEM    = UTC
MEAN_ELEMENT_THEORY = SGP/SGP4

EPOCH          = 2025-12-01T06:00:02.000160
MEAN_MOTION    = 15.75041934
ECCENTRICITY   = .00018222
INCLINATION    = 42.9989
RA_OF_ASC_NODE = 193.1531
ARG_OF_PERICENTER = 273.9572
MEAN_ANOMALY   = 272.2198

EPHEMERIS_TYPE = 0
CLASSIFICATION_TYPE = U
NORAD_CAT_ID   = 66511
ELEMENT_SET_NO = 999
REV_AT_EPOCH   = 378
BSTAR          = -.12572047E-3
MEAN_MOTION_DOT = -.19747E-3
MEAN_MOTION_DDOT = 0

CCSDS_OMM_VERS = 2.0
CREATION_DATE  = 
ORIGINATOR     = 

OBJECT_NAME    = STARLINK-35366
OBJECT_ID      = 2025-263AD
CENTER_NAME    = EARTH
REF_FRAME      = TEME
TIME_SYSTEM    = UTC
MEAN_ELEMENT_THEORY = SGP/SGP4

EPOCH          = 2025-12-01T06:00:02.000160
MEAN_MOTION    = 15.75021681
ECCENTRICITY   = .0001796
INCLINATION    = 42.9990
RA_OF_ASC_NODE = 193.1432
ARG_OF_PERICENTER = 257.0991
MEAN_ANOMALY   = 292.9123

EPHEMERIS_TYPE = 0
CLASSIFICATION_TYPE = U
NORAD_CAT_ID   = 66512
ELEMENT_SET_NO = 999
REV_AT_EPOCH   = 378
BSTAR          = .26065317E-3
MEAN_MOTION_DOT = .3972E-3
MEAN_MOTION_DDOT = 0

CCSDS_OMM_VERS = 2.0
CREATION_DATE  = 
ORIGINATOR     = 

OBJECT_NAME    = STARLINK-35692
OBJECT_ID      = 2025-263AE
CENTER_NAME    = EARTH
REF_FRAME      = TEME
TIME_SYSTEM    = UTC
MEAN_ELEMENT_THEORY = SGP/SGP4

EPOCH          = 2025-12-01T06:00:02.000160
MEAN_MOTION    = 15.75032178
ECCENTRICITY   = .00016975
INCLINATION    = 42.9989
RA_OF_ASC_NODE = 193.1582
ARG_OF_PERICENTER = 269.4557
MEAN_ANOMALY   = 274.7971

EPHEMERIS_TYPE = 0
CLASSIFICATION_TYPE = U
NORAD_CAT_ID   = 66513
ELEMENT_SET_NO = 999
REV_AT_EPOCH   = 378
BSTAR          = .17069993E-3
MEAN_MOTION_DOT = .25816E-3
MEAN_MOTION_DDOT = 0

CCSDS_OMM_VERS = 2.0
CREATION_DATE  = 
ORIGINATOR     = 

OBJECT_NAME    = SENTINEL-6B
OBJECT_ID      = 2025-264A
CENTER_NAME    = EARTH
REF_FRAME      = TEME
TIME_SYSTEM    = UTC
MEAN_ELEMENT_THEORY = SGP/SGP4

EPOCH          = 2025-12-01T06:27:32.352480
MEAN_MOTION    = 12.85877220
ECCENTRICITY   = .00115256
INCLINATION    = 66.0387
RA_OF_ASC_NODE = 186.3929
ARG_OF_PERICENTER = 268.9655
MEAN_ANOMALY   = 91.0043

EPHEMERIS_TYPE = 0
CLASSIFICATION_TYPE = U
NORAD_CAT_ID   = 66514
ELEMENT_SET_NO = 999
REV_AT_EPOCH   = 181
BSTAR          = .30733737E-3
MEAN_MOTION_DOT = .14E-6
MEAN_MOTION_DDOT = 0

CCSDS_OMM_VERS = 2.0
CREATION_DATE  = 
ORIGINATOR     = 

OBJECT_NAME    = STARLINK-35924
OBJECT_ID      = 2025-265A
CENTER_NAME    = EARTH
REF_FRAME      = TEME
TIME_SYSTEM    = UTC
MEAN_ELEMENT_THEORY = SGP/SGP4

EPOCH          = 2025-12-01T06:00:02.000160
MEAN_MOTION    = 15.77043451
ECCENTRICITY   = .00014961
INCLINATION    = 42.9997
RA_OF_ASC_NODE = 122.4886
ARG_OF_PERICENTER = 267.8187
MEAN_ANOMALY   = 296.8064

EPHEMERIS_TYPE = 0
CLASSIFICATION_TYPE = U
NORAD_CAT_ID   = 66516
ELEMENT_SET_NO = 999
REV_AT_EPOCH   = 312
BSTAR          = -.92526144E-2
MEAN_MOTION_DOT = -.1381403E-1
MEAN_MOTION_DDOT = 0

CCSDS_OMM_VERS = 2.0
CREATION_DATE  = 
ORIGINATOR     = 

OBJECT_NAME    = STARLINK-35937
OBJECT_ID      = 2025-265B
CENTER_NAME    = EARTH
REF_FRAME      = TEME
TIME_SYSTEM    = UTC
MEAN_ELEMENT_THEORY = SGP/SGP4

EPOCH          = 2025-12-01T06:00:02.000160
MEAN_MOTION    = 15.76985268
ECCENTRICITY   = .00016336
INCLINATION    = 42.9997
RA_OF_ASC_NODE = 122.4841
ARG_OF_PERICENTER = 270.6899
MEAN_ANOMALY   = 295.9723

EPHEMERIS_TYPE = 0
CLASSIFICATION_TYPE = U
NORAD_CAT_ID   = 66517
ELEMENT_SET_NO = 999
REV_AT_EPOCH   = 314
BSTAR          = -.91679098E-2
MEAN_MOTION_DOT = -.1367031E-1
MEAN_MOTION_DDOT = 0

CCSDS_OMM_VERS = 2.0
CREATION_DATE  = 
ORIGINATOR     = 

OBJECT_NAME    = STARLINK-35962
OBJECT_ID      = 2025-265C
CENTER_NAME    = EARTH
REF_FRAME      = TEME
TIME_SYSTEM    = UTC
MEAN_ELEMENT_THEORY = SGP/SGP4

EPOCH          = 2025-12-01T06:00:02.000160
MEAN_MOTION    = 15.76972184
ECCENTRICITY   = .00014364
INCLINATION    = 42.9996
RA_OF_ASC_NODE = 122.4790
ARG_OF_PERICENTER = 271.6792
MEAN_ANOMALY   = 296.9492

EPHEMERIS_TYPE = 0
CLASSIFICATION_TYPE = U
NORAD_CAT_ID   = 66518
ELEMENT_SET_NO = 999
REV_AT_EPOCH   = 314
BSTAR          = -.92264427E-2
MEAN_MOTION_DOT = -.1373966E-1
MEAN_MOTION_DDOT = 0

CCSDS_OMM_VERS = 2.0
CREATION_DATE  = 
ORIGINATOR     = 

OBJECT_NAME    = STARLINK-35931
OBJECT_ID      = 2025-265D
CENTER_NAME    = EARTH
REF_FRAME      = TEME
TIME_SYSTEM    = UTC
MEAN_ELEMENT_THEORY = SGP/SGP4

EPOCH          = 2025-12-01T06:00:02.000160
MEAN_MOTION    = 15.76875463
ECCENTRICITY   = .00016465
INCLINATION    = 42.9996
RA_OF_ASC_NODE = 122.4734
ARG_OF_PERICENTER = 266.6608
MEAN_ANOMALY   = 304.0345

EPHEMERIS_TYPE = 0
CLASSIFICATION_TYPE = U
NORAD_CAT_ID   = 66519
ELEMENT_SET_NO = 999
REV_AT_EPOCH   = 314
BSTAR          = -.85763124E-2
MEAN_MOTION_DOT = -.128217E-1
MEAN_MOTION_DDOT = 0

CCSDS_OMM_VERS = 2.0
CREATION_DATE  = 
ORIGINATOR     = 

OBJECT_NAME    = STARLINK-35952
OBJECT_ID      = 2025-265E
CENTER_NAME    = EARTH
REF_FRAME      = TEME
TIME_SYSTEM    = UTC
MEAN_ELEMENT_THEORY = SGP/SGP4

EPOCH          = 2025-12-01T06:00:02.000160
MEAN_MOTION    = 15.76834861
ECCENTRICITY   = .00014969
INCLINATION    = 42.9997
RA_OF_ASC_NODE = 122.4682
ARG_OF_PERICENTER = 269.9917
MEAN_ANOMALY   = 302.7596

EPHEMERIS_TYPE = 0
CLASSIFICATION_TYPE = U
NORAD_CAT_ID   = 66520
ELEMENT_SET_NO = 999
REV_AT_EPOCH   = 314
BSTAR          = -.88765442E-2
MEAN_MOTION_DOT = -.1320104E-1
MEAN_MOTION_DDOT = 0

