STARLINK-35608          
1 66508U 25263Z   25335.25002315 -.00000321  00000+0  10226-5 0  9991
2 66508  42.9989 193.1683 0002030 272.0343 268.3750 15.75048804  3786
STARLINK-35598          
1 66509U 25263AA  25335.25002315 -.00010211  00000+0 -63439-4 0  9995
2 66509  42.9989 193.1479 0001380 269.6116 278.4803 15.75041890  3786
STARLINK-35600          
1 66510U 25263AB  25335.25002315 -.00003990  00000+0 -22859-4 0  9994
2 66510  42.9990 193.1624 0002295 272.3370 269.9911 15.75047905  3789
STARLINK-35444          
1 66511U 25263AC  25335.25002315 -.00019747  00000+0 -12572-3 0  9992
2 66511  42.9989 193.1531 0001822 273.9572 272.2198 15.75041934  3781
STARLINK-35366          
1 66512U 25263AD  25335.25002315  .00039720  00000+0  26065-3 0  9996
2 66512  42.9990 193.1432 0001796 257.0991 292.9123 15.75021681  3786
STARLINK-35692          
1 66513U 25263AE  25335.25002315  .00025816  00000+0  17070-3 0  9994
2 66513  42.9989 193.1582 0001697 269.4557 274.7971 15.75032178  3788
SENTINEL-6B             
1 66514U 25264A   25335.26912445  .00000014  00000+0  30734-3 0  9996
2 66514  66.0387 186.3929 0011525 268.9655  91.0043 12.85877220  1816
STARLINK-35924          
1 66516U 25265A   25335.25002315 -.01381403  00000+0 -92526-2 0  9997
2 66516  42.9997 122.4886 0001496 267.8187 296.8064 15.77043451  3124
STARLINK-35937          
1 66517U 25265B   25335.25002315 -.01367031  00000+0 -91679-2 0  9997
2 66517  42.9997 122.4841 0001633 270.6899 295.9723 15.76985268  3145
STARLINK-35962          
1 66518U 25265C   25335.25002315 -.01373966  00000+0 -92264-2 0  9993
2 66518  42.9996 122.4790 0001436 271.6792 296.9492 15.76972184  3149
STARLINK-35931          
1 66519U 25265D   25335.25002315 -.01282170  00000+0 -85763-2 0  9996
2 66519  42.9996 122.4734 0001646 266.6608 304.0345 15.76875463  3141
STARLINK-35952          
1 66520U 25265E   25335.25002315 -.01320104  00000+0 -88765-2 0  9993
2 66520  42.9997 122.4682 0001496 269.9917 302.7596 15.76834861  3148
